XRISM                   
1 57800U 23137A   26092.14771571  .00006385  00000+0  35922-3 0  9993
2 57800  31.0012 131.9035 0007903 274.9967  84.9770 15.11778521141340
ACS3                    
1 59588U 24077B   26092.32192737  .00031643  00000+0  24713-1 0  9992
2 59588  97.1958  28.1225 0073127  23.0795 337.3627 13.90761909 97486
HTV-X1                  
1 66174U 25241A   26092.32216159  .00002012  00000+0  74807-4 0  9990
2 66174  51.6372 319.1601 0007232 263.7967  96.2190 15.32498869 24564
SZ-21 MODULE            
1 66515U 25246C   26092.23545067  .00052107  00000+0  41273-3 0  9997
2 66515  41.4744  58.2163 0002689 222.0292 138.0345 15.70445326 21776
