CCSDS_OMM_VERS = 2.0
CREATION_DATE  = 
ORIGINATOR     = 

OBJECT_NAME    = XRISM
OBJECT_ID      = 2023-137A
CENTER_NAME    = EARTH
REF_FRAME      = TEME
TIME_SYSTEM    = UTC
MEAN_ELEMENT_THEORY = SGP/SGP4

EPOCH          = 2026-04-02T03:32:42.637344
MEAN_MOTION    = 15.11778521
ECCENTRICITY   = .00079039
INCLINATION    = 31.0012
RA_OF_ASC_NODE = 131.9035
ARG_OF_PERICENTER = 274.9967
MEAN_ANOMALY   = 84.9770

EPHEMERIS_TYPE = 0
CLASSIFICATION_TYPE = U
NORAD_CAT_ID   = 57800
ELEMENT_SET_NO = 999
REV_AT_EPOCH   = 14134
BSTAR          = .35921504E-3
MEAN_MOTION_DOT = .6385E-4
MEAN_MOTION_DDOT = 0

CCSDS_OMM_VERS = 2.0
CREATION_DATE  = 
ORIGINATOR     = 

OBJECT_NAME    = ACS3
OBJECT_ID      = 2024-077B
CENTER_NAME    = EARTH
REF_FRAME      = TEME
TIME_SYSTEM    = UTC
MEAN_ELEMENT_THEORY = SGP/SGP4

EPOCH          = 2026-04-02T07:43:34.524768
MEAN_MOTION    = 13.90761909
ECCENTRICITY   = .00731274
INCLINATION    = 97.1958
RA_OF_ASC_NODE = 28.1225
ARG_OF_PERICENTER = 23.0795
MEAN_ANOMALY   = 337.3627

EPHEMERIS_TYPE = 0
CLASSIFICATION_TYPE = U
NORAD_CAT_ID   = 59588
ELEMENT_SET_NO = 999
REV_AT_EPOCH   = 9748
BSTAR          = .24712747E-1
MEAN_MOTION_DOT = .31643E-3
MEAN_MOTION_DDOT = 0

CCSDS_OMM_VERS = 2.0
CREATION_DATE  = 
ORIGINATOR     = 

OBJECT_NAME    = HTV-X1
OBJECT_ID      = 2025-241A
CENTER_NAME    = EARTH
REF_FRAME      = TEME
TIME_SYSTEM    = UTC
MEAN_ELEMENT_THEORY = SGP/SGP4

EPOCH          = 2026-04-02T07:43:54.761376
MEAN_MOTION    = 15.32498869
ECCENTRICITY   = .00072321
INCLINATION    = 51.6372
RA_OF_ASC_NODE = 319.1601
ARG_OF_PERICENTER = 263.7967
MEAN_ANOMALY   = 96.2190

EPHEMERIS_TYPE = 0
CLASSIFICATION_TYPE = U
NORAD_CAT_ID   = 66174
ELEMENT_SET_NO = 999
REV_AT_EPOCH   = 2456
BSTAR          = .74806522E-4
MEAN_MOTION_DOT = .2012E-4
MEAN_MOTION_DDOT = 0

CCSDS_OMM_VERS = 2.0
CREATION_DATE  = 
ORIGINATOR     = 

OBJECT_NAME    = SZ-21 MODULE
OBJECT_ID      = 2025-246C
CENTER_NAME    = EARTH
REF_FRAME      = TEME
TIME_SYSTEM    = UTC
MEAN_ELEMENT_THEORY = SGP/SGP4

EPOCH          = 2026-04-02T05:39:02.937888
MEAN_MOTION    = 15.70445326
ECCENTRICITY   = .00026896
INCLINATION    = 41.4744
RA_OF_ASC_NODE = 58.2163
ARG_OF_PERICENTER = 222.0292
MEAN_ANOMALY   = 138.0345

EPHEMERIS_TYPE = 0
CLASSIFICATION_TYPE = U
NORAD_CAT_ID   = 66515
ELEMENT_SET_NO = 999
REV_AT_EPOCH   = 2177
BSTAR          = .41273011E-3
MEAN_MOTION_DOT = .52107E-3
MEAN_MOTION_DDOT = 0

